$$SOE
2459580.500000000, A.D. 2022-Jan-01 00:00:00.0000, 1.320085813235300E+08, 4.316306903926527E+08, 1.050011821382626E+08,
2459587.500000000, A.D. 2022-Jan-08 00:00:00.0000, 1.220703085181842E+08, 4.337526095906085E+08, 1.049288324824780E+08,
2459594.500000000, A.D. 2022-Jan-15 00:00:00.0000, 1.120721625552741E+08, 4.356618868485243E+08, 1.048050440804894E+08,
2459601.500000000, A.D. 2022-Jan-22 00:00:00.0000, 1.020187752522311E+08, 4.373565235986182E+08, 1.046296218462298E+08,
2459608.500000000, A.D. 2022-Jan-29 00:00:00.0000, 9.191485210449390E+07, 4.388346078096870E+08, 1.044023938856204E+08,
2459615.500000000, A.D. 2022-Feb-05 00:00:00.0000, 8.176516910327274E+07, 4.400943160432198E+08, 1.041232122058392E+08,
2459622.500000000, A.D. 2022-Feb-12 00:00:00.0000, 7.157457162385894E+07, 4.411339144796617E+08, 1.037919531433438E+08,
2459629.500000000, A.D. 2022-Feb-19 00:00:00.0000, 6.134797405746879E+07, 4.419517612819284E+08, 1.034085178250209E+08,
2459636.500000000, A.D. 2022-Feb-26 00:00:00.0000, 5.109035887170789E+07, 4.425463095685224E+08, 1.029728327218029E+08,
2459643.500000000, A.D. 2022-Mar-05 00:00:00.0000, 4.080677525431945E+07, 4.429161103749098E+08, 1.024848502279856E+08,
2459650.500000000, A.D. 2022-Mar-12 00:00:00.0000, 3.050233755754531E+07, 4.430598155334460E+08, 1.019445492389780E+08,
2459657.500000000, A.D. 2022-Mar-19 00:00:00.0000, 2.018222360990494E+07, 4.429761804958586E+08, 1.013519357217181E+08,
2459664.500000000, A.D. 2022-Mar-26 00:00:00.0000, 9.851672913705274E+06, 4.426640670880839E+08, 1.007070432736557E+08,
2459671.500000000, A.D. 2022-Apr-02 00:00:00.0000, -4.840152079026181E+05, 4.421224461370570E+08, 1.000099336579300E+08,
2459678.500000000, A.D. 2022-Apr-09 00:00:00.0000, -1.081948324624257E+07, 4.413503999694813E+08, 9.926069728861910E+07,
2459685.500000000, A.D. 2022-Apr-16 00:00:00.0000, -2.114931657166479E+07, 4.403471254321032E+08, 9.845945368538672E+07,
2459692.500000000, A.D. 2022-Apr-23 00:00:00.0000, -3.146804519919640E+07, 4.391119385136900E+08, 9.760635210132214E+07,
2459699.500000000, A.D. 2022-Apr-30 00:00:00.0000, -4.177014812701800E+07, 4.376442783166692E+08, 9.670157230988359E+07,
2459706.500000000, A.D. 2022-May-07 00:00:00.0000, -5.205005718914291E+07, 4.359437083958449E+08, 9.574532510627896E+07,
2459713.500000000, A.D. 2022-May-14 00:00:00.0000, -6.230215903755894E+07, 4.340099184977243E+08, 9.473785264329070E+07,
2459720.500000000, A.D. 2022-May-21 00:00:00.0000, -7.252079728638513E+07, 4.318427274542661E+08, 9.367942884862754E+07,
2459727.500000000, A.D. 2022-May-28 00:00:00.0000, -8.270027529826865E+07, 4.294420862644995E+08, 9.257035988731202E+07,
2459734.500000000, A.D. 2022-Jun-04 00:00:00.0000, -9.283485933788633E+07, 4.268080810431693E+08, 9.141098461616343E+07,
2459741.500000000, A.D. 2022-Jun-11 00:00:00.0000, -1.029187819495616E+08, 4.239409358308070E+08, 9.020167501547036E+07,
2459748.500000000, A.D. 2022-Jun-18 00:00:00.0000, -1.129462455215143E+08, 4.208410152706317E+08, 8.894283659357876E+07,
2459755.500000000, A.D. 2022-Jun-25 00:00:00.0000, -1.229114260080717E+08, 4.175088271109564E+08, 8.763490875715026E+07,
2459762.500000000, A.D. 2022-Jul-02 00:00:00.0000, -1.328084766761619E+08, 4.139450244588745E+08, 8.627836512755895E+07,
2459769.500000000, A.D. 2022-Jul-09 00:00:00.0000, -1.426315314859734E+08, 4.101504079534179E+08, 8.487371378026447E+07,
2459776.500000000, A.D. 2022-Jul-16 00:00:00.0000, -1.523747081611834E+08, 4.061259289326477E+08, 8.342149749913630E+07,
2459783.500000000, A.D. 2022-Jul-23 00:00:00.0000, -1.620321131463041E+08, 4.018726936652106E+08, 8.192229425240006E+07,
2459790.500000000, A.D. 2022-Jul-30 00:00:00.0000, -1.715978483634479E+08, 3.973919652827716E+08, 8.037671760622665E+07,
2459797.500000000, A.D. 2022-Aug-06 00:00:00.0000, -1.810660161678875E+08, 3.926851640490312E+08, 7.878541679649064E+07,
2459804.500000000, A.D. 2022-Aug-13 00:00:00.0000, -1.904307233251049E+08, 3.877538687120192E+08, 7.714907675831482E+07,
2459811.500000000, A.D. 2022-Aug-20 00:00:00.0000, -1.996860855742625E+08, 3.825998184292142E+08, 7.546841821477291E+07,
2459818.500000000, A.D. 2022-Aug-27 00:00:00.0000, -2.088262327035979E+08, 3.772249145287705E+08, 7.374419775672616E+07,
2459825.500000000, A.D. 2022-Sep-03 00:00:00.0000, -2.178453138832872E+08, 3.716312219846016E+08, 7.197720787932545E+07,
2459832.500000000, A.D. 2022-Sep-10 00:00:00.0000, -2.267375031594426E+08, 3.658209706168314E+08, 7.016827696625763E+07,
2459839.500000000, A.D. 2022-Sep-17 00:00:00.0000, -2.354970050744238E+08, 3.597965560037564E+08, 6.831826921677762E+07,
2459846.500000000, A.D. 2022-Sep-24 00:00:00.0000, -2.441180603481958E+08, 3.535605400439480E+08, 6.642808450443335E+07,
2459853.500000000, A.D. 2022-Oct-01 00:00:00.0000, -2.525949513752548E+08, 3.471156511377286E+08, 6.449865814269270E+07,
2459860.500000000, A.D. 2022-Oct-08 00:00:00.0000, -2.609220071228014E+08, 3.404647845027206E+08, 6.253096056175658E+07,
2459867.500000000, A.D. 2022-Oct-15 00:00:00.0000, -2.690936083539788E+08, 3.336110038159064E+08, 6.052599707879291E+07,
2459874.500000000, A.D. 2022-Oct-22 00:00:00.0000, -2.771041953481474E+08, 3.265575424927167E+08, 5.848480782266033E+07,
2459881.500000000, A.D. 2022-Oct-29 00:00:00.0000, -2.849482756066598E+08, 3.193078020015548E+08, 5.640846736987107E+07,
2459888.500000000, A.D. 2022-Nov-05 00:00:00.0000, -2.926204294322031E+08, 3.118653499432843E+08, 5.429808412107284E+07,
2459895.500000000, A.D. 2022-Nov-12 00:00:00.0000, -3.001153153372098E+08, 3.042339191553437E+08, 5.215479970078760E+07,
2459902.500000000, A.D. 2022-Nov-19 00:00:00.0000, -3.074276759888860E+08, 2.964174068812559E+08, 4.997978836753710E+07,
2459909.500000000, A.D. 2022-Nov-26 00:00:00.0000, -3.145523444148507E+08, 2.884198736020138E+08, 4.777425637686071E+07,
2459916.500000000, A.D. 2022-Dec-03 00:00:00.0000, -3.214842502894432E+08, 2.802455415117027E+08, 4.553944128035934E+07,
2459923.500000000, A.D. 2022-Dec-10 00:00:00.0000, -3.282184262410802E+08, 2.718987926508964E+08, 4.327661115774904E+07,
2459930.500000000, A.D. 2022-Dec-17 00:00:00.0000, -3.347500141414182E+08, 2.633841666686623E+08, 4.098706377753000E+07,
2459937.500000000, A.D. 2022-Dec-24 00:00:00.0000, -3.410742712518855E+08, 2.547063581440513E+08, 3.867212567102297E+07,
2459944.500000000, A.D. 2022-Dec-31 00:00:00.0000, -3.471865758543746E+08, 2.458702135720482E+08, 3.633315109615906E+07,
2459951.500000000, A.D. 2023-Jan-07 00:00:00.0000, -3.530824322276503E+08, 2.368807289744686E+08, 3.397152095906802E+07,
2459958.500000000, A.D. 2023-Jan-14 00:00:00.0000, -3.587574769218559E+08, 2.277430486321225E+08, 3.158864191545981E+07,
2459965.500000000, A.D. 2023-Jan-21 00:00:00.0000, -3.642074869612998E+08, 2.184624617682195E+08, 2.918594545289302E+07,
2459972.500000000, A.D. 2023-Jan-28 00:00:00.0000, -3.694283862886626E+08, 2.090443969902287E+08, 2.676488660272875E+07,
2459979.500000000, A.D. 2023-Feb-04 00:00:00.0000, -3.744162506403464E+08, 1.994944175181145E+08, 2.432694254973802E+07,
2459986.500000000, A.D. 2023-Feb-11 00:00:00.0000, -3.791673126334572E+08, 1.898182170085842E+08, 2.187361129004106E+07,
2459993.500000000, A.D. 2023-Feb-18 00:00:00.0000, -3.836779671118168E+08, 1.800216151587721E+08, 1.940641027791022E+07,
2460000.500000000, A.D. 2023-Feb-25 00:00:00.0000, -3.879447764702373E+08, 1.701105529341846E+08, 1.692687502627183E+07,
2460007.500000000, A.D. 2023-Mar-04 00:00:00.0000, -3.919644758368512E+08, 1.600910874461152E+08, 1.443655765552755E+07,
2460014.500000000, A.D. 2023-Mar-11 00:00:00.0000, -3.957339780678210E+08, 1.499693864859491E+08, 1.193702539096474E+07,
2460021.500000000, A.D. 2023-Mar-18 00:00:00.0000, -3.992503784915741E+08, 1.397517226747752E+08, 9.429859003644727E+06,
2460028.500000000, A.D. 2023-Mar-25 00:00:00.0000, -4.025109591847739E+08, 1.294444671903325E+08, 6.916651175851040E+06,
2460035.500000000, A.D. 2023-Apr-01 00:00:00.0000, -4.055131923420172E+08, 1.190540834753912E+08, 4.399004788115218E+06,
2460042.500000000, A.D. 2023-Apr-08 00:00:00.0000, -4.082547433421554E+08, 1.085871221644175E+08, 1.878531288249329E+06,
2460049.500000000, A.D. 2023-Apr-15 00:00:00.0000, -4.107334758380638E+08, 9.805021613565505E+07, -6.431507299164161E+05,
2460056.500000000, A.D. 2023-Apr-22 00:00:00.0000, -4.129474570517639E+08, 8.745007265309745E+07, -3.164417149867255E+06,
2460063.500000000, A.D. 2023-Apr-29 00:00:00.0000, -4.148949605271707E+08, 7.679346486901830E+07, -5.683640220732551E+06,
2460070.500000000, A.D. 2023-May-06 00:00:00.0000, -4.165744680869070E+08, 6.608722448389372E+07, -8.199190399574623E+06,
2460077.500000000, A.D. 2023-May-13 00:00:00.0000, -4.179846719596171E+08, 5.533823468623306E+07, -1.070943812716366E+07,
2460084.500000000, A.D. 2023-May-20 00:00:00.0000, -4.191244768338487E+08, 4.455342289887267E+07, -1.321275559470653E+07,
2460091.500000000, A.D. 2023-May-27 00:00:00.0000, -4.199930016349563E+08, 3.373975331910517E+07, -1.570751851711896E+07,
2460098.500000000, A.D. 2023-Jun-03 00:00:00.0000, -4.205895809599532E+08, 2.290421929415435E+07, -1.819210791139107E+07,
2460105.500000000, A.D. 2023-Jun-10 00:00:00.0000, -4.209137661430798E+08, 1.205383553429008E+07, -2.066491187909451E+07,
2460112.500000000, A.D. 2023-Jun-17 00:00:00.0000, -4.209653258624432E+08, 1.195630121556258E+06, -2.312432740224416E+07,
2460119.500000000, A.D. 2023-Jun-24 00:00:00.0000, -4.207442459678433E+08, -9.663363610297889E+06, -2.556876217357938E+07,
2460126.500000000, A.D. 2023-Jul-01 00:00:00.0000, -4.202507282761609E+08, -2.051611447596491E+07, -2.799663641289679E+07,
2460133.500000000, A.D. 2023-Jul-08 00:00:00.0000, -4.194851900077025E+08, -3.135559927695660E+07, -3.040638444462737E+07,
2460140.500000000, A.D. 2023-Jul-15 00:00:00.0000, -4.184482651421266E+08, -4.217480988936534E+07, -3.279645614694871E+07,
2460147.500000000, A.D. 2023-Jul-22 00:00:00.0000, -4.171408041767909E+08, -5.296676261583097E+07, -3.516531867624680E+07,
$$EOE